2026-023H               
1 67681U 26023H   26037.83153515  .00006451  00000+0  28069-3 0  9993
2 67681  96.6335 116.8614 0021555 226.9356 133.0079 15.22318667   149
2026-023J               
1 67682U 26023J   26037.83150012  .00006460  00000+0  28055-3 0  9998
2 67682  96.6412 116.8562 0021119 228.0113 131.9327 15.22391354   145
ISS OBJECT XZ           
1 67683U 98067XZ  26036.75905287  .00053171  00000+0  95375-3 0  9998
2 67683  51.6310 230.1884 0007776  59.1422 301.0331 15.49358087   364
ISS OBJECT YA           
1 67684U 98067YA  26037.92001410  .00052577  00000+0  93977-3 0  9999
2 67684  51.6314 224.4401 0007746  62.2205 297.9568 15.49464211   543
ISS OBJECT YB           
1 67685U 98067YB  26037.92012590  .00047751  00000+0  85682-3 0  9993
2 67685  51.6312 224.4405 0007864  62.7877 297.3912 15.49395303   549
ISS OBJECT YC           
1 67686U 98067YC  26037.79119683  .00040563  00000+0  73065-3 0  9996
2 67686  51.6307 225.0797 0011170  87.3207 272.9060 15.49324988   533
ISS OBJECT YD           
1 67687U 98067YD  26037.79107111  .00047022  00000+0  84186-3 0  9993
2 67687  51.6309 225.0790 0013087  82.8856 277.3620 15.49405872   531
ISS OBJECT YE           
1 67688U 98067YE  26037.79069587  .00076414  00000+0  13455-2 0  9995
2 67688  51.6308 225.0770 0013184  83.4359 276.8130 15.49665429   538
